norad_id,name,regime,epoch,line1,line2,inclination,eccentricity,mean_motion,raan,arg_pericenter,mean_anomaly
43231,O3B FM15,MEO,24181.48539639,1 43231U 18024A   24181.48539639 -.00000015  00000-0  00000-0 0    12\,2 43231   0.0481   6.8769 0002650  94.9284 258.2234  5.00114868115122,0.0481,0.000265,5.00114868,6.8769,94.9284,258.2234
43231,O3B FM15,MEO,24183.28441299,1 43231U 18024A   24183.28441299 -.00000018  00000-0  00000-0 0    19\,2 43231   0.0482   6.7963 0002622  95.0740 258.1578  5.00114899115210,0.0482,0.0002622,5.00114899,6.7963,95.074,258.1578
43231,O3B FM15,MEO,24184.48375757,1 43231U 18024A   24184.48375757 -.00000020  00000-0  00000-0 0    10\,2 43231   0.0483   6.7315 0002621  96.0302 257.2659  5.00114911115277,0.0483,0.0002621,5.00114911,6.7315,96.0302,257.2659
43231,O3B FM15,MEO,24188.68146387,1 43231U 18024A   24188.68146387 -.00000028  00000-0  00000-0 0    19\,2 43231   0.0485   6.5884 0002662 100.8629 252.5743  5.00114969115487,0.0485,0.0002662,5.00114969,6.5884,100.8629,252.5743
43231,O3B FM15,MEO,24189.68091757,1 43231U 18024A   24189.68091757 -.00000028  00000-0  00000-0 0    10\,2 43231   0.0486   6.5111 0002658 102.4530 251.0611  5.00114971115532,0.0486,0.0002658,5.00114971,6.5111,102.453,251.0611
43231,O3B FM15,MEO,24190.68037192,1 43231U 18024A   24190.68037192 -.00000027  00000-0  00000-0 0    14\,2 43231   0.0486   6.4618 0002659 103.5523 250.0110  5.00114957115580,0.0486,0.0002659,5.00114957,6.4618,103.5523,250.011
43231,O3B FM15,MEO,24196.07742455,1 43231U 18024A   24196.07742455 -.00000016  00000-0  00000-0 0    16\,2 43231   0.0489   6.2011 0002669 109.2718 244.5541  5.00114988115858,0.0489,0.0002669,5.00114988,6.2011,109.2718,244.5541
43231,O3B FM15,MEO,24196.47720625,1 43231U 18024A   24196.47720625 -.00000016  00000-0  00000-0 0    15\,2 43231   0.0489   6.1299 0002675 109.9806 243.9166  5.00114983115870,0.0489,0.0002675,5.00114983,6.1299,109.9806,243.9166
43231,O3B FM15,MEO,24197.07687876,1 43231U 18024A   24197.07687876 -.00000015  00000-0  00000-0 0    11\,2 43231   0.0490   6.0695 0002689 111.2455 242.7122  5.00114976115907,0.049,0.0002689,5.00114976,6.0695,111.2455,242.7122
43231,O3B FM15,MEO,24197.47666017,1 43231U 18024A   24197.47666017 -.00000014  00000-0  00000-0 0    18\,2 43231   0.0490   6.0952 0002699 112.2332 241.6989  5.00114986115921,0.049,0.0002699,5.00114986,6.0952,112.2332,241.6989
43231,O3B FM15,MEO,24201.47447585,1 43231U 18024A   24201.47447585 -.00000013  00000-0  00000-0 0    10\,2 43231   0.0493   5.9284 0002681 115.5522 238.5453  5.00114922116122,0.0493,0.0002681,5.00114922,5.9284,115.5522,238.5453
43231,O3B FM15,MEO,24203.67327393,1 43231U 18024A   24203.67327393 -.00000014  00000-0  00000-0 0    19\,2 43231   0.0494   5.8048 0002679 117.6172 236.6023  5.00114898116226,0.0494,0.0002679,5.00114898,5.8048,117.6172,236.6023
43231,O3B FM15,MEO,24204.87261825,1 43231U 18024A   24204.87261825 -.00000014  00000-0  00000-0 0    19\,2 43231   0.0495   5.7977 0002679 118.7216 235.5043  5.00114899116296,0.0495,0.0002679,5.00114899,5.7977,118.7216,235.5043
43231,O3B FM15,MEO,24205.47229084,1 43231U 18024A   24205.47229084 -.00000015  00000-0  00000-0 0    18\,2 43231   0.0495   5.7674 0002678 119.2054 235.0505  5.00114870116326,0.0495,0.0002678,5.0011487,5.7674,119.2054,235.0505
43231,O3B FM15,MEO,24211.46901400,1 43231U 18024A   24211.46901400 -.00000021  00000-0  00000-0 0    10\,2 43231   0.0501   5.4502 0002676 125.3576 229.2129  5.00114881116628,0.0501,0.0002676,5.00114881,5.4502,125.3576,229.2129
43231,O3B FM15,MEO,24212.46846744,1 43231U 18024A   24212.46846744 -.00000024  00000-0  00000-0 0    13\,2 43231   0.0502   5.4030 0002675 126.4088 228.2081  5.00114908116675,0.0502,0.0002675,5.00114908,5.403,126.4088,228.2081
43231,O3B FM15,MEO,24218.46518988,1 43231U 18024A   24218.46518988 -.00000029  00000-0  00000-0 0    10\,2 43231   0.0507   5.1072 0002677 132.4470 222.4626  5.00114994116976,0.0507,0.0002677,5.00114994,5.1072,132.447,222.4626
43231,O3B FM15,MEO,24222.46300648,1 43231U 18024A   24222.46300648 -.00000021  00000-0  00000-0 0    19\,2 43231   0.0510   4.8663 0002678 136.4481 218.7035  5.00115003117176,0.051,0.0002678,5.00115003,4.8663,136.4481,218.7035
43231,O3B FM15,MEO,24224.46191470,1 43231U 18024A   24224.46191470 -.00000017  00000-0  00000-0 0    17\,2 43231   0.0512   4.7605 0002681 138.7435 216.5142  5.00114984117274,0.0512,0.0002681,5.00114984,4.7605,138.7435,216.5142
43231,O3B FM15,MEO,24225.06158685,1 43231U 18024A   24225.06158685 -.00000017  00000-0  00000-0 0    15\,2 43231   0.0513   4.7179 0002681 139.4836 215.8167  5.00114995117309,0.0513,0.0002681,5.00114995,4.7179,139.4836,215.8167
43231,O3B FM15,MEO,24225.86115029,1 43231U 18024A   24225.86115029 -.00000016  00000-0  00000-0 0    17\,2 43231   0.0513   4.6448 0002691 139.9478 215.4256  5.00114969117334,0.0513,0.0002691,5.00114969,4.6448,139.9478,215.4256
43231,O3B FM15,MEO,24228.85951114,1 43231U 18024A   24228.85951114 -.00000015  00000-0  00000-0 0    11\,2 43231   0.0516   4.5895 0002694 143.5261 211.9008  5.00114952117480,0.0516,0.0002694,5.00114952,4.5895,143.5261,211.9008
43231,O3B FM15,MEO,24229.85896497,1 43231U 18024A   24229.85896497 -.00000016  00000-0  00000-0 0    15\,2 43231   0.0516   4.6000 0002693 144.5380 210.8777  5.00114921117545,0.0516,0.0002693,5.00114921,4.6,144.538,210.8777
43231,O3B FM15,MEO,24231.25820035,1 43231U 18024A   24231.25820035 -.00000016  00000-0  00000-0 0    17\,2 43231   0.0517   4.6357 0002696 146.2241 209.1546  5.00114873117618,0.0517,0.0002696,5.00114873,4.6357,146.2241,209.1546
43231,O3B FM15,MEO,24232.85732605,1 43231U 18024A   24232.85732605 -.00000017  00000-0  00000-0 0    10\,2 43231   0.0518   4.5414 0002697 147.9651 207.5068  5.00114879117691,0.0518,0.0002697,5.00114879,4.5414,147.9651,207.5068
43231,O3B FM15,MEO,24235.85568728,1 43231U 18024A   24235.85568728 -.00000018  00000-0  00000+0 0  5415\,2 43231   0.0521   4.4046 0002697 151.1280 204.4794  5.00114898118021,0.0521,0.0002697,5.00114898,4.4046,151.128,204.4794
43231,O3B FM15,MEO,24237.25492257,1 43231U 18024A   24237.25492257 -.00000020  00000-0  00000-0 0    19\,2 43231   0.0522   4.3624 0002700 152.6558 202.9931  5.00114906117904,0.0522,0.00027,5.00114906,4.3624,152.6558,202.9931
43231,O3B FM15,MEO,24238.25437644,1 43231U 18024A   24238.25437644 -.00000022  00000-0  00000-0 0    11\,2 43231   0.0523   4.3414 0002701 153.7250 201.9442  5.00114900117959,0.0523,0.0002701,5.001149,4.3414,153.725,201.9442
43231,O3B FM15,MEO,24239.05393939,1 43231U 18024A   24239.05393939 -.00000024  00000-0  00000-0 0    10\,2 43231   0.0524   4.3904 0002698 154.3897 201.2299  5.00114907118000,0.0524,0.0002698,5.00114907,4.3904,154.3897,201.2299
43231,O3B FM15,MEO,24239.85350223,1 43231U 18024A   24239.85350223 -.00000026  00000-0  00000-0 0    19\,2 43231   0.0525   4.3299 0002697 155.2563 200.4231  5.00114917118038,0.0525,0.0002697,5.00114917,4.3299,155.2563,200.4231
43231,O3B FM15,MEO,24240.25328376,1 43231U 18024A   24240.25328376 -.00000027  00000-0  00000-0 0    10\,2 43231   0.0525   4.3328 0002697 155.6529 200.0232  5.00114914118053,0.0525,0.0002697,5.00114914,4.3328,155.6529,200.0232
43231,O3B FM15,MEO,24241.25273720,1 43231U 18024A   24241.25273720 -.00000029  00000-0  00000-0 0    15\,2 43231   0.0526   4.3919 0002699 156.6726 198.9436  5.00114937118115,0.0526,0.0002699,5.00114937,4.3919,156.6726,198.9436
43231,O3B FM15,MEO,24245.05066133,1 43231U 18024A   24245.05066133 -.00000032  00000-0  00000-0 0    19\,2 43231   0.0529   4.3941 0002699 160.4396 195.1722  5.00114989118304,0.0529,0.0002699,5.00114989,4.3941,160.4396,195.1722
43231,O3B FM15,MEO,24249.84804074,1 43231U 18024A   24249.84804074 -.00000023  00000-0  00000-0 0    14\,2 43231   0.0532   4.2560 0002699 164.7796 190.9715  5.00115035118549,0.0532,0.0002699,5.00115035,4.256,164.7796,190.9715
43231,O3B FM15,MEO,24253.44607518,1 43231U 18024A   24253.44607518 -.00000018  00000-0  00000-0 0    13\,2 43231   0.0534   4.2896 0002709 169.0095 186.7076  5.00114983118729,0.0534,0.0002709,5.00114983,4.2896,169.0095,186.7076
43231,O3B FM15,MEO,24254.44552876,1 43231U 18024A   24254.44552876 -.00000017  00000-0  00000-0 0    19\,2 43231   0.0535   4.2620 0002711 169.9558 185.7886  5.00114988118779,0.0535,0.0002711,5.00114988,4.262,169.9558,185.7886
43231,O3B FM15,MEO,24255.44498264,1 43231U 18024A   24255.44498264 -.00000017  00000-0  00000-0 0    10\,2 43231   0.0536   4.3778 0002713 171.0007 184.6272  5.00114952118824,0.0536,0.0002713,5.00114952,4.3778,171.0007,184.6272
43231,O3B FM15,MEO,24255.84476401,1 43231U 18024A   24255.84476401 -.00000017  00000-0  00000-0 0    13\,2 43231   0.0536   4.3786 0002713 171.3465 184.2803  5.00114955118845,0.0536,0.0002713,5.00114955,4.3786,171.3465,184.2803
43231,O3B FM15,MEO,24256.64432712,1 43231U 18024A   24256.64432712 -.00000017  00000-0  00000-0 0    19\,2 43231   0.0536   4.4024 0002715 172.2167 183.3856  5.00114922118888,0.0536,0.0002715,5.00114922,4.4024,172.2167,183.3856
43231,O3B FM15,MEO,24258.24345255,1 43231U 18024A   24258.24345255 -.00000017  00000-0  00000-0 0    12\,2 43231   0.0537   4.4565 0002719 174.0276 181.5193  5.00114921118966,0.0537,0.0002719,5.00114921,4.4565,174.0276,181.5193
43231,O3B FM15,MEO,24259.24290605,1 43231U 18024A   24259.24290605 -.00000017  00000-0  00000-0 0    11\,2 43231   0.0538   4.4837 0002721 175.0424 180.4765  5.00114921119018,0.0538,0.0002721,5.00114921,4.4837,175.0424,180.4765
43231,O3B FM15,MEO,24260.84203215,1 43231U 18024A   24260.84203215 -.00000018  00000-0  00000-0 0    11\,2 43231   0.0538   4.5475 0002723 176.4633 178.9909  5.00114899119090,0.0538,0.0002723,5.00114899,4.5475,176.4633,178.9909
43231,O3B FM15,MEO,24263.04083057,1 43231U 18024A   24263.04083057 -.00000019  00000-0  00000-0 0    17\,2 43231   0.0539   4.6009 0002722 178.0354 177.3649  5.00114904119206,0.0539,0.0002722,5.00114904,4.6009,178.0354,177.3649
